#dP2024  5  2  0  0  0.00000000      96 __u+U IGS20 FIT  IAC
## 2312 345600.00000000   900.00000000 60432 0.0000000000000
+  119   C06C07C08C09C10C11C12C13C14C16C19C20C21C22C23C24C25
+        C26C27C28C29C30C32C33C34C35C36C37C38C39C40C41C42C43
+        C44C45C46E02E03E04E05E07E08E09E10E11E12E13E14E15E18
+        E19E21E24E25E26E27E30E31E33E34E36G01G02G03G04G05G06
+        G07G08G09G10G11G12G13G14G15G16G17G18G19G20G21G22G23
+        G24G25G26G27G28G29G30G31G32J03J04R01R02R03R04R05R07
+        R08R09R11R12R13R14R15R16R17R18R19R20R21R22R24R25R26
++         9  8  8  9  6  7  6  7  8  8  8  8  7  7  6  7  6
++         6  6  7  7  6  7  6  7  6  7  7  9  7  8  7  7  6
++         5  8  7  6  6  6  6  6  5  6  6  6  6  6  6  6  5
++         6  6  7  7  5  6  5  6  5  5  6  5  5  6  6  6  6
++         6  6  6  6  5  6  5  6  6  7  6  6  5  5  6  6  5
++         6  6  7  5  6  6  6  6  6  9  5  6  6  6  7  7  5
++         6  6  5  8  6  4  7  6  6  5  7  6  7  6  6  6  7
%c M  cc GPS ccc cccc cccc cccc cccc ccccc ccccc ccccc ccccc
%c cc cc ccc ccc cccc cccc cccc cccc ccccc ccccc ccccc ccccc
%f  0.0000000  0.000000000  0.00000000000  0.000000000000000
%f  0.0000000  0.000000000  0.00000000000  0.000000000000000
%i    0    0    0    0      0      0      0      0         0
%i    0    0    0    0      0      0      0      0         0
/* INFORMATION & ANALYSIS CENTER (IAC)      ULTRA-RAPID DATA
/* S/V CLOCKS ARE ALIGNED TO GNSS TIME                      
/* G:C1WC2W R:C1PC2P E:C1XC5X C:C2IC6I J:C1CC2S             
/* PCV:IGS20_2290 OL/AL:FES2004  NONE     YN ORB:CoN CLK:CoN
*  2024 05 02 16  0  0.00000000
PC06  -1219.278735  37229.961122  20105.683481    391.025131
PC07 -13049.312089  26268.669440 -30262.286526   -766.457935
PC08 -18846.218531  35843.854414  11357.168401    -77.642569
PC09   2311.699541  39984.682996  14639.525170   -844.680290
PC10  -3648.991510  27364.962367 -31577.270571     63.381897
PC11  -5334.501303  16323.922235 -21932.489072    542.088517
PC12 -18890.370926   -928.624534 -20487.300183   -240.345894
PC13 -12280.092836  36173.521131  17696.297335    433.905402
PC14 -16105.111752  15284.702945  16960.728772    785.327704
PC16  -4724.836132  34545.280714  24254.628702   -495.597181
PC19   5984.540597 -16325.962444 -21791.290406   -913.188467
PC20  22444.907761 -12399.330474 -10948.505956   -421.710069
PC21 -26854.592781    510.376980  -7621.116660   -965.084739
PC22 -14943.690680 -11136.352159 -20781.447038    -18.518005
PC23   6820.453058  20520.812353 -17633.363973   -777.269346
PC24 -16332.860545  17664.205599  14111.792918    930.449698
PC25  -5920.723572  27127.348661  -2703.827519    389.673688
PC26 -16471.036926  -1320.565197  22468.204736   -285.595551
PC27  21910.294241   9010.925501  14732.301062    307.254959
PC28  18628.227244  20778.892508     55.425161    235.288081
PC29  -3336.514417 -21336.683935  17663.327849    276.054990
PC30  14117.955322  -8293.388623  22587.095723    -68.127194
PC32  26791.994773   -618.800178   7757.141474   -614.263294
PC33  -6030.169467  16416.363813  21758.445959   -967.677333
PC34 -12893.609153   9801.538098 -22740.999870    425.006824
PC35 -19258.072197 -20166.672422    198.744914    372.869971
PC36   6619.391731 -26991.882158   2595.504094     69.499147
PC37  16391.803068   1903.380402 -22495.370958   -968.544985
PC38 -21826.835863  35798.779715   3848.076838    152.645123
PC39  -6502.753069  31312.779268  27674.987801     -8.201510
PC40 -18241.750361  19554.109997 -32682.363227    -68.245932
PC41  14075.363138  11588.700449  21176.194136   -938.238199
PC42 -23505.293607  11751.260378   9492.920878   -442.651032
PC43   2367.179566  21060.103943 -18181.031651     70.183011
PC44 -22335.379968  -8174.638255 -14590.684618    461.342994
PC45  -6603.559849 -20588.140474  17652.414684    -83.358805
PC46  16116.905717 -18313.037361 -13588.367716   -144.867797
PE02  25515.647110 -10610.278024 -10634.403633    124.192686
PE03  26140.971493    -87.422597 -13867.682436   -111.124376
PE04 -10576.816531  13825.974122  23955.050477   -387.507558
PE05  26052.933744  13421.235651   4144.989268   4744.006627
PE07 -10369.101909 -19162.169377 -20031.144032   -117.859822
PE08  11354.112888 -13255.599610 -23898.466401   -264.339819
PE09  10265.054476  19051.685042  20194.955991   -428.409890
PE10   -871.025495  28539.519038  -7819.201625   -621.694589
PE11   5865.989995  28905.811281   2602.668885   2940.562465
PE12  -6910.848721  24016.237153 -15890.062638  -1020.522170
PE13  -5525.658190 -29002.377974  -2020.402690    -21.344490
PE14   4142.021665 -16113.948201  19403.844529     23.965536
PE15   7170.415312 -23604.913882  16348.810318   -100.528544
PE18 -15958.087582  13870.607092 -22568.809840     65.495198
PE19 -26898.995044  -1665.856519  12259.936655   -136.154172
PE21 -17922.254099  -5930.794372  22794.503297   -592.367927
PE24   -745.960927  19877.133020 -21933.062639   -740.169962
PE25  17623.353079   6288.667445 -22935.012062      4.029456
PE26 -15056.819191 -16779.184062 -19178.345034    442.813487
PE27    440.549092 -19719.655136  22069.924619   -339.245589
PE30  18477.514238 -21628.240357   8188.052233   -259.086530
PE31 -18311.380841  21707.760405  -8341.803023    -22.408477
PE33 -15571.291480   3859.407107 -24878.008067     11.179292
PE34  15454.009679  -4489.148378  24834.825768   -108.985848
PE36  14765.169252  17384.148838  18872.466474   -221.538744
PG01      0.000000      0.000000      0.000000 999999.999999
PG02  15424.370781  -1228.588161  22088.717302   -443.241712
PG03  22332.294935 -11237.120581   8632.999935    342.456253
PG04  23070.986672   -652.672527 -13245.172227    352.146113
PG05 -18236.350316  -1229.471020 -19478.931668   -171.263809
PG06  -5213.110589 -25937.799996  -1424.702835    293.340776
PG07   7021.138102 -20384.566819 -14682.831610   -120.217303
PG08  25916.738467   5643.901572   3668.540086    156.218921
PG09  13079.632580 -10840.798818 -20508.929893    181.660972
PG10  -4389.083076  19221.012840  17844.993776    -16.754903
PG11 -11882.702209 -19632.962231 -13393.425962   -652.073759
PG12 -23066.748731   8604.659541   9610.031349   -501.830472
PG13 -22492.952142 -14117.643084  -2838.978052    647.409398
PG14   8308.027779 -20343.690533  14801.569074    390.899882
PG15 -26269.471137  -2847.571202   3089.540548    154.719550
PG16  15837.155966   6516.828102 -20749.159232   -301.965019
PG17   -372.220122 -16194.392474  21440.622340    709.115895
PG18  -6693.532549  21022.041120 -14633.731134   -604.313704
PG19 -10704.490206 -17841.169520  16546.215410    476.445620
PG20 -10781.497667 -10990.970761 -21587.864813    378.037068
PG21  16519.354941   5424.833651  20781.277686    123.952442
PG22   1263.574138 -17955.545350  20045.247685     -7.978942
PG23 -14818.832471  20428.638785   7976.528369    215.470240
PG24 -16195.175713  -1168.006813  20660.683001   -465.722133
PG25 -20444.087792  16646.772143   1291.982385    494.973007
PG26   5595.877323  15959.119679 -20557.065173    158.617575
PG27  22161.116037  13265.224850  -7376.888618    -21.958004
PG28   4711.399134  26113.078927   1192.632879   -227.202950
PG29 -16079.484925   7613.448211 -19809.872807   -599.894769
PG30   -342.441141 -25772.369919  -5646.814223   -396.498278
PG31  10318.768676  22411.011330  -9502.988730   -227.931085
PG32   4493.668857  16682.958231  20437.981965   -618.427920
PJ03 -19930.680622  25151.547971 -22744.335320      0.087692
PJ04 -28509.304348  29043.741939  17156.368716     50.372248
PR01  23967.979365   2514.425896   8339.965275     84.170441
PR02  23433.396694  -4698.467870  -8951.105641    -22.867386
PR03   9551.936318 -10293.562356 -21255.804739     99.381483
PR04  -9080.904551  -9831.819876 -21677.751325    234.623610
PR05 -22856.237358  -4362.806601 -10412.226937    130.885135
PR07  -8531.497067  10447.913568  21685.729499     81.513929
PR08   9439.123756   9856.256083  21622.085298    -75.281693
PR09 -15194.878067  14564.586508  14490.797751    184.320865
PR11  -1386.386086  19525.686562 -16355.698506     26.070952
PR12  10761.508875   3111.716831 -22892.618462     39.664899
PR13  15162.457136 -12237.203290 -16476.634775    -46.995324
PR14  10846.506394 -22997.030452   1903.809315     26.449343
PR15    346.273899 -18620.434105  17445.117011     80.141211
PR16 -10545.451652  -3231.928589  23011.029559     25.250305
PR17   -800.088847 -17537.469726  18524.112564     83.223398
PR18 -11026.254593 -22515.402328   4563.467225    140.086514
PR19 -15143.778702 -17722.194030 -10361.991023   -275.155907
PR20 -11077.803572   1120.340853 -22942.573949   -112.185850
PR21    614.610974  17413.063425 -18625.742068    -97.562046
PR22  10981.750183  22787.792374  -3327.221726    114.157204
PR24  11163.558870  -2372.058660  22822.201783    -54.211062
PR25     25.085711  17795.171118 -18266.620768    -33.087932
PR26   8192.956864  10015.177632  22002.150181    -21.821593
EOF
